{"type":"FeatureCollection","features":[{"type":"Feature","geometry":{"type":"Point","coordinates":[30.3713,9.4756]},"properties":{"id":"marker0","type":"volcanoes","icon":"🌋","x":1427.25,"y":157.31,"name":"Mount Putlantorcag","legend":"Dormant volcano. Height: 3025m."}},{"type":"Feature","geometry":{"type":"Point","coordinates":[-60.3388,-15.4434]},"properties":{"id":"marker1","type":"hot-springs","icon":"♨️","x":31.71,"y":540.71,"name":"Hot Springs of Totti","legend":"A geothermal springs with naturally heated water that provide relaxation and medicinal benefits. Average temperature is 49°C."}},{"type":"Feature","geometry":{"type":"Point","coordinates":[55.5854,-22.2731]},"properties":{"id":"marker2","type":"water-sources","icon":"💧","x":1815.16,"y":645.79,"name":"Gatley Healing Spring","legend":"This legendary water source is whispered about in ancient tales and believed to possess mystical properties. The spring emanates crystal-clear water, shimmering with an otherworldly iridescence that sparkles even in the dimmest light."}},{"type":"Feature","geometry":{"type":"Point","coordinates":[55.8272,-6.8816]},"properties":{"id":"marker3","type":"mines","icon":"⛏️","x":1818.88,"y":408.98,"name":"Chalaion — salt mining town","legend":"Chalaion is a mining town of 10408 people just nearby the salt mine."}},{"type":"Feature","geometry":{"type":"Point","coordinates":[30.4356,19.5655]},"properties":{"id":"marker4","type":"mines","icon":"⛏️","x":1428.24,"y":2.07,"name":"Nalokloszent — silver mining town","legend":"Nalokloszent is a mining town of 17566 people just nearby the silver mine."}},{"type":"Feature","geometry":{"type":"Point","coordinates":[60.71,-26.5589]},"properties":{"id":"marker5","type":"mines","icon":"⛏️","x":1894,"y":711.73,"name":"Krudar — silver mining town","legend":"Krudar is a mining town of 6425 people just nearby the silver mine."}},{"type":"Feature","geometry":{"type":"Point","coordinates":[57.4808,0.3003]},"properties":{"id":"marker6","type":"mines","icon":"⛏️","x":1844.32,"y":298.48,"name":"Stenau — silver mining town","legend":"Stenau is a mining town of 3271 people just nearby the silver mine."}},{"type":"Feature","geometry":{"type":"Point","coordinates":[-58.4616,-12.3315]},"properties":{"id":"marker7","type":"mines","icon":"⛏️","x":60.59,"y":492.83,"name":"Joendi — salt mining town","legend":"Joendi is a mining town of 4565 people just nearby the salt mine."}},{"type":"Feature","geometry":{"type":"Point","coordinates":[-61.0727,-2.1052]},"properties":{"id":"marker8","type":"mines","icon":"⛏️","x":20.42,"y":335.49,"name":"Kosa — copper mining town","legend":"Kosa is a mining town of 4449 people just nearby the copper mine."}},{"type":"Feature","geometry":{"type":"Point","coordinates":[59.4301,-10.806]},"properties":{"id":"marker9","type":"mines","icon":"⛏️","x":1874.31,"y":469.36,"name":"Rolis — iron mining town","legend":"Rolis is a mining town of 4311 people just nearby the iron mine."}},{"type":"Feature","geometry":{"type":"Point","coordinates":[-16.1506,18.2071]},"properties":{"id":"marker10","type":"mines","icon":"⛏️","x":711.53,"y":22.97,"name":"Pomihkovsk — salt mining town","legend":"Pomihkovsk is a mining town of 649 people just nearby the salt mine."}},{"type":"Feature","geometry":{"type":"Point","coordinates":[55.1252,-11.8687]},"properties":{"id":"marker11","type":"mines","icon":"⛏️","x":1808.08,"y":485.71,"name":"Itagas — salt mining town","legend":"Itagas is a mining town of 9525 people just nearby the salt mine."}},{"type":"Feature","geometry":{"type":"Point","coordinates":[56.8523,-22.1204]},"properties":{"id":"marker12","type":"mines","icon":"⛏️","x":1834.65,"y":643.44,"name":"Saltoncesto — copper mining town","legend":"Saltoncesto is a mining town of 8641 people just nearby the copper mine."}},{"type":"Feature","geometry":{"type":"Point","coordinates":[59.7435,5.2295]},"properties":{"id":"marker13","type":"mines","icon":"⛏️","x":1879.13,"y":222.64,"name":"Lieiamtzen — copper mining town","legend":"Lieiamtzen is a mining town of 3585 people just nearby the copper mine."}},{"type":"Feature","geometry":{"type":"Point","coordinates":[55.7486,-4.1902]},"properties":{"id":"marker14","type":"mines","icon":"⛏️","x":1817.67,"y":367.57,"name":"Segeatis — iron mining town","legend":"Segeatis is a mining town of 8873 people just nearby the iron mine."}},{"type":"Feature","geometry":{"type":"Point","coordinates":[53.3683,-17.5746]},"properties":{"id":"marker15","type":"mines","icon":"⛏️","x":1781.05,"y":573.5,"name":"Tithos — salt mining town","legend":"Tithos is a mining town of 4949 people just nearby the salt mine."}},{"type":"Feature","geometry":{"type":"Point","coordinates":[-52.817,-1.788]},"properties":{"id":"marker16","type":"bridges","icon":"🌉","x":147.43,"y":330.61,"name":"Mique Bridge","legend":"An old crossing of the Metela River, rarely used since its collapse during the flood."}},{"type":"Feature","geometry":{"type":"Point","coordinates":[-45.8887,-1.9752]},"properties":{"id":"marker17","type":"bridges","icon":"🌉","x":254.02,"y":333.49,"name":"Zaosocelas Bridge","legend":"A stone bridge spans over the Fonderiares River near Zaosocelas."}},{"type":"Feature","geometry":{"type":"Point","coordinates":[-56.3322,-23.1388]},"properties":{"id":"marker18","type":"inns","icon":"🍻","x":93.35,"y":659.11,"name":"The Great Inn","legend":"A big and famous roadside inn. Delicious dry-aged cabbage with ice vodka is served here."}},{"type":"Feature","geometry":{"type":"Point","coordinates":[57.0843,-1.0204]},"properties":{"id":"marker19","type":"inns","icon":"🍻","x":1838.22,"y":318.8,"name":"The Brown Horse","legend":"A big and famous roadside inn. Delicious deep-fried beet with red rom is served here."}},{"type":"Feature","geometry":{"type":"Point","coordinates":[57.6843,7.2879]},"properties":{"id":"marker20","type":"inns","icon":"🍻","x":1847.45,"y":190.97,"name":"The Superior Inn","legend":"A big and famous roadside inn. Delicious corned melon with red whisky is served here."}},{"type":"Feature","geometry":{"type":"Point","coordinates":[-55.5763,-22.3531]},"properties":{"id":"marker21","type":"inns","icon":"🍻","x":104.98,"y":647.02,"name":"The High Inn","legend":"A big and famous roadside inn. Delicious baked sturgeon with blue nectar is served here."}},{"type":"Feature","geometry":{"type":"Point","coordinates":[44.3723,13.0237]},"properties":{"id":"marker22","type":"inns","icon":"🍻","x":1642.65,"y":102.72,"name":"The Fair Tavern","legend":"A big and famous roadside tavern. Delicious cured rice with misty wine is served here."}},{"type":"Feature","geometry":{"type":"Point","coordinates":[-18.4925,8.2544]},"properties":{"id":"marker23","type":"inns","icon":"🍻","x":675.5,"y":176.1,"name":"The Peaceful Lark","legend":"A big and famous roadside tavern. Delicious marinated lark with fire tea is served here."}},{"type":"Feature","geometry":{"type":"Point","coordinates":[-47.6489,6.443]},"properties":{"id":"marker24","type":"inns","icon":"🍻","x":226.94,"y":203.97,"name":"The Brown Falcon","legend":"A big and famous roadside tavern. Delicious dressed falcon with fire gin is served here."}},{"type":"Feature","geometry":{"type":"Point","coordinates":[22.9099,-30.389]},"properties":{"id":"marker25","type":"inns","icon":"🍻","x":1312.46,"y":770.66,"name":"The Fair Shark","legend":"A big and famous roadside tavern. Delicious dressed shark with shiny rom is served here."}},{"type":"Feature","geometry":{"type":"Point","coordinates":[10.1517,-32.6307]},"properties":{"id":"marker26","type":"inns","icon":"🍻","x":1116.18,"y":805.15,"name":"The Big Tavern","legend":"A big and famous roadside tavern. Delicious dried chicken with cold mead is served here."}},{"type":"Feature","geometry":{"type":"Point","coordinates":[-52.7059,-12.2587]},"properties":{"id":"marker27","type":"inns","icon":"🍻","x":149.14,"y":491.71,"name":"The Hungry Tavern","legend":"A big and famous roadside tavern. Delicious braised bass with shiny absinthe is served here."}},{"type":"Feature","geometry":{"type":"Point","coordinates":[0.2762,5.4602]},"properties":{"id":"marker28","type":"inns","icon":"🍻","x":964.25,"y":219.09,"name":"The High Tavern","legend":"A big and famous roadside tavern. Delicious poached pheasant with blue water is served here."}},{"type":"Feature","geometry":{"type":"Point","coordinates":[-52.1846,6.0199]},"properties":{"id":"marker29","type":"inns","icon":"🍻","x":157.16,"y":210.48,"name":"The Beautiful Dog","legend":"A big and famous roadside tavern. Delicious smoked dog with grey tequila is served here."}},{"type":"Feature","geometry":{"type":"Point","coordinates":[32.7671,-17.4661]},"properties":{"id":"marker30","type":"lighthouses","icon":"🚨","x":1464.11,"y":571.83,"name":"Wargdonese Lighthouse","legend":"A lighthouse to serve as a beacon for ships in the open sea."}},{"type":"Feature","geometry":{"type":"Point","coordinates":[-45.7125,-24.4283]},"properties":{"id":"marker31","type":"lighthouses","icon":"🚨","x":256.73,"y":678.95,"name":"Chistery Lighthouse","legend":"A lighthouse to serve as a beacon for ships in the open sea."}},{"type":"Feature","geometry":{"type":"Point","coordinates":[39.8684,-25.6801]},"properties":{"id":"marker32","type":"lighthouses","icon":"🚨","x":1573.36,"y":698.21,"name":"Merhambeham Lighthouse","legend":"A lighthouse to serve as a beacon for ships in the open sea."}},{"type":"Feature","geometry":{"type":"Point","coordinates":[30.901,13.0978]},"properties":{"id":"marker33","type":"waterfalls","icon":"⟱","x":1435.4,"y":101.58,"name":"Ralimontifalese Waterfall","legend":"An impressive waterfall has cut through the land."}},{"type":"Feature","geometry":{"type":"Point","coordinates":[-10.8972,-36.5122]},"properties":{"id":"marker34","type":"battlefields","icon":"⚔️","x":792.35,"y":864.87,"name":"Abererch Battlefield","legend":"A historical battle of the Aberlech Conquest. \r\nDate: July 28, 1288 Tumunzdi Era."}},{"type":"Feature","geometry":{"type":"Point","coordinates":[50.4582,-1.2843]},"properties":{"id":"marker35","type":"battlefields","icon":"⚔️","x":1736.28,"y":322.86,"name":"Erythropo Battlefield","legend":"A historical battle of the Bythumnosian War. \r\nDate: December 24, 1281 Tumunzdi Era."}},{"type":"Feature","geometry":{"type":"Point","coordinates":[-5.2923,14.5777]},"properties":{"id":"marker36","type":"battlefields","icon":"⚔️","x":878.58,"y":78.81,"name":"Lutesk Battlefield","legend":"A historical battle of the Szartonhalian Campaign. \r\nDate: January 12, 1338 Tumunzdi Era."}},{"type":"Feature","geometry":{"type":"Point","coordinates":[-54.7118,15.9173]},"properties":{"id":"marker37","type":"battlefields","icon":"⚔️","x":118.28,"y":58.2,"name":"Balejondie Battlefield","legend":"A historical battle of the Burovia-Zolterrian War. \r\nDate: September 2, 1004 Tumunzdi Era."}},{"type":"Feature","geometry":{"type":"Point","coordinates":[0.8944,-23.7914]},"properties":{"id":"marker38","type":"battlefields","icon":"⚔️","x":973.76,"y":669.15,"name":"Fhlai Battlefield","legend":"A historical battle of the Aberlech Conquest. \r\nDate: November 14, 1287 Tumunzdi Era."}},{"type":"Feature","geometry":{"type":"Point","coordinates":[60.6164,-34.2088]},"properties":{"id":"marker39","type":"dungeons","icon":"🗝️","x":1892.56,"y":829.43,"name":"Dungeon","legend":"<div>Undiscovered dungeon. See <a href=\"https://watabou.github.io/one-page-dungeon/?seed=2603592396289\" target=\"_blank\">One page dungeon</a></div><iframe style=\"pointer-events: none;\" src=\"https://watabou.github.io/one-page-dungeon/?seed=2603592396289\" sandbox=\"allow-scripts allow-same-origin\"></iframe>"}},{"type":"Feature","geometry":{"type":"Point","coordinates":[7.8494,-37.7894]},"properties":{"id":"marker40","type":"dungeons","icon":"🗝️","x":1080.76,"y":884.52,"name":"Dungeon","legend":"<div>Undiscovered dungeon. See <a href=\"https://watabou.github.io/one-page-dungeon/?seed=2603592396698\" target=\"_blank\">One page dungeon</a></div><iframe style=\"pointer-events: none;\" src=\"https://watabou.github.io/one-page-dungeon/?seed=2603592396698\" sandbox=\"allow-scripts allow-same-origin\"></iframe>"}},{"type":"Feature","geometry":{"type":"Point","coordinates":[-14.2064,-37.5775]},"properties":{"id":"marker41","type":"dungeons","icon":"🗝️","x":741.44,"y":881.26,"name":"Dungeon","legend":"<div>Undiscovered dungeon. See <a href=\"https://watabou.github.io/one-page-dungeon/?seed=2603592396670\" target=\"_blank\">One page dungeon</a></div><iframe style=\"pointer-events: none;\" src=\"https://watabou.github.io/one-page-dungeon/?seed=2603592396670\" sandbox=\"allow-scripts allow-same-origin\"></iframe>"}},{"type":"Feature","geometry":{"type":"Point","coordinates":[52.9061,-35.978]},"properties":{"id":"marker42","type":"dungeons","icon":"🗝️","x":1773.94,"y":856.65,"name":"Dungeon","legend":"<div>Undiscovered dungeon. See <a href=\"https://watabou.github.io/one-page-dungeon/?seed=2603592396496\" target=\"_blank\">One page dungeon</a></div><iframe style=\"pointer-events: none;\" src=\"https://watabou.github.io/one-page-dungeon/?seed=2603592396496\" sandbox=\"allow-scripts allow-same-origin\"></iframe>"}},{"type":"Feature","geometry":{"type":"Point","coordinates":[46.8163,-40.1948]},"properties":{"id":"marker43","type":"dungeons","icon":"🗝️","x":1680.25,"y":921.53,"name":"Dungeon","legend":"<div>Undiscovered dungeon. See <a href=\"https://watabou.github.io/one-page-dungeon/?seed=2603592397189\" target=\"_blank\">One page dungeon</a></div><iframe style=\"pointer-events: none;\" src=\"https://watabou.github.io/one-page-dungeon/?seed=2603592397189\" sandbox=\"allow-scripts allow-same-origin\"></iframe>"}},{"type":"Feature","geometry":{"type":"Point","coordinates":[-13.6194,-40.718]},"properties":{"id":"marker44","type":"lake-monsters","icon":"🐉","x":750.47,"y":929.58,"name":"Infoduaitodu Monster","legend":"Tales say a relic monster of 12 m long inhabits Infoduaitodu Lake. Truth or lie, folks are afraid to fish in the lake."}},{"type":"Feature","geometry":{"type":"Point","coordinates":[36.9427,-27.6482]},"properties":{"id":"marker45","type":"sea-monsters","icon":"🦑","x":1528.35,"y":728.49,"name":"Westcham Monster","legend":"Old sailors tell stories of a gigantic sea monster inhabiting these dangerous waters. Rumors say it can be 29 m long."}},{"type":"Feature","geometry":{"type":"Point","coordinates":[-46.8279,-23.5626]},"properties":{"id":"marker46","type":"sea-monsters","icon":"🦑","x":239.57,"y":665.63,"name":"Uxble Monster","legend":"Old sailors tell stories of a gigantic sea monster inhabiting these dangerous waters. Rumors say it can be 29 m long."}},{"type":"Feature","geometry":{"type":"Point","coordinates":[58.7964,-11.2747]},"properties":{"id":"marker47","type":"hill-monsters","icon":"👹","x":1864.56,"y":476.57,"name":"Kousaidamna Monster","legend":"Journeying folk speak of a golden Monster who inhabits Kousaidamna hills and keeps the region at bay."}},{"type":"Feature","geometry":{"type":"Point","coordinates":[50.737,-28.1968]},"properties":{"id":"marker48","type":"hill-monsters","icon":"👹","x":1740.57,"y":736.93,"name":"Castford Ogre","legend":"Locals speak of a terrifying Ogre who inhabits Castford hills and eats kids whole."}},{"type":"Feature","geometry":{"type":"Point","coordinates":[52.3556,-1.4916]},"properties":{"id":"marker49","type":"sacred-forests","icon":"🌳","x":1765.47,"y":326.05,"name":"Therniamos Forest","legend":"A forest sacred to local Way of Histrealyra."}},{"type":"Feature","geometry":{"type":"Point","coordinates":[58.7451,11.263]},"properties":{"id":"marker50","type":"sacred-forests","icon":"🌳","x":1863.77,"y":129.81,"name":"Athrepoi Forest","legend":"A forest sacred to local Way of Histrealyra."}},{"type":"Feature","geometry":{"type":"Point","coordinates":[61.2391,-29.6273]},"properties":{"id":"marker51","type":"sacred-forests","icon":"🌳","x":1902.14,"y":758.94,"name":"Snuba Forest","legend":"A forest sacred to local Norse Beliefs."}},{"type":"Feature","geometry":{"type":"Point","coordinates":[-5.1278,-37.2883]},"properties":{"id":"marker52","type":"sacred-pineries","icon":"🌲","x":881.11,"y":876.81,"name":"Naraberarth Pinery","legend":"A pinery sacred to local Camsism."}},{"type":"Feature","geometry":{"type":"Point","coordinates":[37.4504,-30.3793]},"properties":{"id":"marker53","type":"brigands","icon":"💰","x":1536.16,"y":770.51,"name":"Mitreley Wolverines","legend":"A gang of forest brigands."}},{"type":"Feature","geometry":{"type":"Point","coordinates":[42.822,-41.2913]},"properties":{"id":"marker54","type":"brigands","icon":"💰","x":1618.8,"y":938.4,"name":"Clitfordge Badgers","legend":"A gang of forest bandits."}},{"type":"Feature","geometry":{"type":"Point","coordinates":[-3.7447,-39.4181]},"properties":{"id":"marker55","type":"brigands","icon":"💰","x":902.39,"y":909.58,"name":"Fhlaigeguia Foxes","legend":"A gang of forest bandits."}},{"type":"Feature","geometry":{"type":"Point","coordinates":[-58.2718,-20.1484]},"properties":{"id":"marker56","type":"brigands","icon":"💰","x":63.51,"y":613.1,"name":"Henares Boars","legend":"A gang of forest robbers."}},{"type":"Feature","geometry":{"type":"Point","coordinates":[40.339,-7.5719]},"properties":{"id":"marker57","type":"pirates","icon":"🏴‍☠️","x":1580.6,"y":419.6,"name":"Pirates","legend":"Pirate ships have been spotted in these waters."}},{"type":"Feature","geometry":{"type":"Point","coordinates":[48.7389,7.2541]},"properties":{"id":"marker58","type":"pirates","icon":"🏴‍☠️","x":1709.83,"y":191.49,"name":"Pirates","legend":"Pirate ships have been spotted in these waters."}},{"type":"Feature","geometry":{"type":"Point","coordinates":[-33.3957,-41.0378]},"properties":{"id":"marker59","type":"pirates","icon":"🏴‍☠️","x":446.22,"y":934.5,"name":"Pirates","legend":"Pirate ships have been spotted in these waters."}},{"type":"Feature","geometry":{"type":"Point","coordinates":[32.24,-0.052]},"properties":{"id":"marker60","type":"pirates","icon":"🏴‍☠️","x":1456,"y":303.9,"name":"Pirates","legend":"Pirate ships have been spotted in these waters."}},{"type":"Feature","geometry":{"type":"Point","coordinates":[-7.1714,-43.8631]},"properties":{"id":"marker61","type":"statues","icon":"🗿","x":849.67,"y":977.97,"name":"Tregircaber Obelisk","legend":"An ancient obelisk. It has an inscription, but no one can translate it:\n        <div style=\"font-size: 1.8em; line-break: anywhere;\">ደፐዘዐገቀፀጸጰጸረ ዐአደዐዘዐከደሠአቀሰ  ፈነ አከፐፐነቀዐ ቀጠሀኀአነዘአአ ፀጰገ ሐዐጸበዐከዘዐለፐሐከመሠ  የመወ ሐወጸሰገኀሐቀፀዐጠረ ለሀፀበጰፈጠፐ</div>"}},{"type":"Feature","geometry":{"type":"Point","coordinates":[46.1448,-6.7744]},"properties":{"id":"marker62","type":"statues","icon":"🗿","x":1669.92,"y":407.33,"name":"Cornelio Pillar","legend":"An ancient pillar. It has an inscription, but no one can translate it:\n        <div style=\"font-size: 1.8em; line-break: anywhere;\">\udc2c𐠗\udc2d \ud802𐠕𐠿𐠥\udc28\ud802𐠅\udc0c\udc38\udc19\ud802𐠘\udc18\udc01\udc29\udc0d\udc3c𐠰\ud802\ud802\ud802\ud802𐠈𐠬\udc19\ud802𐠣\ud802𐠙\udc11\ud802\ud802\ud802𐠲\ud802\ud802\ud802</div>"}},{"type":"Feature","geometry":{"type":"Point","coordinates":[23.9011,14.1559]},"properties":{"id":"marker63","type":"statues","icon":"🗿","x":1327.71,"y":85.3,"name":"Datondezony Statue","legend":"An ancient statue. It has an inscription, but no one can translate it:\n        <div style=\"font-size: 1.8em; line-break: anywhere;\">ጰጸከዐቀወተሐጠ ሐፀተከለነወየየቀዐዘጠለ ከነተቀለ ዘረነመ በከ ሐፈጰአከጠመ ሐበገለጠፐተኀዘጰ</div>"}},{"type":"Feature","geometry":{"type":"Point","coordinates":[-10.6002,4.8194]},"properties":{"id":"marker64","type":"ruins","icon":"🏺","x":796.92,"y":228.95,"name":"Ruined Mausoleum","legend":"Ruins of an ancient mausoleum. Untold riches may lie within."}},{"type":"Feature","geometry":{"type":"Point","coordinates":[-25.909,15.1958]},"properties":{"id":"marker65","type":"ruins","icon":"🏺","x":561.4,"y":69.3,"name":"Ruined Settlement","legend":"Ruins of an ancient settlement. Untold riches may lie within."}},{"type":"Feature","geometry":{"type":"Point","coordinates":[-48.5511,-20.1432]},"properties":{"id":"marker66","type":"ruins","icon":"🏺","x":213.06,"y":613.02,"name":"Ruined Pyramid","legend":"Ruins of an ancient pyramid. Untold riches may lie within."}},{"type":"Feature","geometry":{"type":"Point","coordinates":[55.3248,-1.4819]},"properties":{"id":"marker67","type":"ruins","icon":"🏺","x":1811.15,"y":325.9,"name":"Ruined Castle","legend":"Ruins of an ancient castle. Untold riches may lie within."}},{"type":"Feature","geometry":{"type":"Point","coordinates":[2.0741,-29.2874]},"properties":{"id":"marker68","type":"ruins","icon":"🏺","x":991.91,"y":753.71,"name":"Ruined Stronghold","legend":"Ruins of an ancient stronghold. Untold riches may lie within."}},{"type":"Feature","geometry":{"type":"Point","coordinates":[-60.4844,3.6566]},"properties":{"id":"marker69","type":"libraries","icon":"📚","x":29.47,"y":246.84,"name":"Bueraba Archive","legend":"A vast collection of knowledge, including many rare and ancient tomes."}},{"type":"Feature","geometry":{"type":"Point","coordinates":[-47.3434,-20.9193]},"properties":{"id":"marker70","type":"circuses","icon":"🎪","x":231.64,"y":624.96,"name":"Travelling Unmissable Circus","legend":"Roll up, roll up, this unmissable circus is here for a limited time only."}},{"type":"Feature","geometry":{"type":"Point","coordinates":[35.4049,-20.088]},"properties":{"id":"marker71","type":"circuses","icon":"🎪","x":1504.69,"y":612.17,"name":"Travelling Magical Circus","legend":"Roll up, roll up, this magical circus is here for a limited time only."}},{"type":"Feature","geometry":{"type":"Point","coordinates":[-47.9186,-14.3853]},"properties":{"id":"marker72","type":"circuses","icon":"🎪","x":222.79,"y":524.43,"name":"Travelling Incomprehensible Circus","legend":"Roll up, roll up, this incomprehensible circus is here for a limited time only."}},{"type":"Feature","geometry":{"type":"Point","coordinates":[-30.6722,13.4683]},"properties":{"id":"marker73","type":"jousts","icon":"🤺","x":488.12,"y":95.88,"name":"Ancanilben Joust","legend":"Warriors from around the land gather for a joust of the greats in Ancanilben, with fame, fortune and favour on offer to the victor."}},{"type":"Feature","geometry":{"type":"Point","coordinates":[1.4228,-24.4673]},"properties":{"id":"marker74","type":"fairs","icon":"🎠","x":981.89,"y":679.55,"name":"Invermawrie Fair","legend":"A fair is being held in Invermawrie, with all manner of local and foreign goods and services on offer."}},{"type":"Feature","geometry":{"type":"Point","coordinates":[-10.3058,9.488]},"properties":{"id":"marker75","type":"canoes","icon":"🛶","x":801.45,"y":157.12,"name":"Minor Jetty","legend":"A small location along the Borod River to launch boats from sits here, along with a weary looking owner, willing to sell passage along the river."}},{"type":"Feature","geometry":{"type":"Point","coordinates":[55.4014,-35.4866]},"properties":{"id":"marker76","type":"migration","icon":"🐗","x":1812.33,"y":849.09,"name":"Foxes migration","legend":"A huge group of foxes are migrating, whether part of their annual routine, or something more extraordinary."}},{"type":"Feature","geometry":{"type":"Point","coordinates":[22.7611,-27.6053]},"properties":{"id":"marker77","type":"dances","icon":"💃🏽","x":1310.17,"y":727.83,"name":"Uxbriden dance","legend":"A dance has been organised at Uxbriden as a chance to gather the foreign dignitaries of the area together to be merry, make alliances and scheme around the crisis."}},{"type":"Feature","geometry":{"type":"Point","coordinates":[56.2458,-11.1408]},"properties":{"id":"marker78","type":"caves","icon":"🦇","x":1825.32,"y":474.51,"name":"Stymphenion Cavern","legend":"The Stymphenion Cavern. Locals claim that it is the home of strange monsters."}},{"type":"Feature","geometry":{"type":"Point","coordinates":[50.4959,-20.8562]},"properties":{"id":"marker79","type":"caves","icon":"🦇","x":1736.86,"y":623.99,"name":"Crafthamber Chasm","legend":"The Crafthamber Chasm. Locals claim that it is slowly filling with lava."}},{"type":"Feature","geometry":{"type":"Point","coordinates":[-43.7249,-41.1275]},"properties":{"id":"marker80","type":"necropolises","icon":"🪦","x":287.31,"y":935.88,"name":"Haymouth Tomb","legend":"A desolate necropolis where an eerie stillness reigns. Time seems frozen amidst the decaying mausoleums, and the silence is broken only by the whispers of the wind and the rustle of tattered banners."}},{"type":"Feature","geometry":{"type":"Point","coordinates":[35.6148,-19.7968]},"properties":{"id":"marker81","type":"encounters","icon":"🧙","x":1507.92,"y":607.69,"name":"Random encounter","legend":"<div>You have encountered a character.</div><iframe src=\"https://deorum.vercel.app/encounter/4591\" width=\"375\" height=\"600\" sandbox=\"allow-scripts allow-same-origin allow-popups\"></iframe>"}},{"type":"Feature","geometry":{"type":"Point","coordinates":[30.7775,-4.5821]},"properties":{"id":"marker82","type":"encounters","icon":"🧙","x":1433.5,"y":373.6,"name":"Random encounter","legend":"<div>You have encountered a character.</div><iframe src=\"https://deorum.vercel.app/encounter/3362\" width=\"375\" height=\"600\" sandbox=\"allow-scripts allow-same-origin allow-popups\"></iframe>"}},{"type":"Feature","geometry":{"type":"Point","coordinates":[-25.1413,-41.0105]},"properties":{"id":"marker83","type":"encounters","icon":"🧙","x":573.21,"y":934.08,"name":"Random encounter","legend":"<div>You have encountered a character.</div><iframe src=\"https://deorum.vercel.app/encounter/7236\" width=\"375\" height=\"600\" sandbox=\"allow-scripts allow-same-origin allow-popups\"></iframe>"}},{"type":"Feature","geometry":{"type":"Point","coordinates":[7.178,9.6622]},"properties":{"id":"marker84","type":"encounters","icon":"🧙","x":1070.43,"y":154.44,"name":"Random encounter","legend":"<div>You have encountered a character.</div><iframe src=\"https://deorum.vercel.app/encounter/1725\" width=\"375\" height=\"600\" sandbox=\"allow-scripts allow-same-origin allow-popups\"></iframe>"}},{"type":"Feature","geometry":{"type":"Point","coordinates":[55.3599,-42.0218]},"properties":{"id":"marker85","type":"encounters","icon":"🧙","x":1811.69,"y":949.64,"name":"Random encounter","legend":"<div>You have encountered a character.</div><iframe src=\"https://deorum.vercel.app/encounter/7490\" width=\"375\" height=\"600\" sandbox=\"allow-scripts allow-same-origin allow-popups\"></iframe>"}},{"type":"Feature","geometry":{"type":"Point","coordinates":[16.1726,-29.4011]},"properties":{"id":"marker86","type":"encounters","icon":"🧙","x":1208.81,"y":755.46,"name":"Random encounter","legend":"<div>You have encountered a character.</div><iframe src=\"https://deorum.vercel.app/encounter/5684\" width=\"375\" height=\"600\" sandbox=\"allow-scripts allow-same-origin allow-popups\"></iframe>"}},{"type":"Feature","geometry":{"type":"Point","coordinates":[6.7165,5.4265]},"properties":{"id":"marker87","type":"encounters","icon":"🧙","x":1063.33,"y":219.61,"name":"Random encounter","legend":"<div>You have encountered a character.</div><iframe src=\"https://deorum.vercel.app/encounter/2248\" width=\"375\" height=\"600\" sandbox=\"allow-scripts allow-same-origin allow-popups\"></iframe>"}},{"type":"Feature","geometry":{"type":"Point","coordinates":[31.7987,4.0525]},"properties":{"id":"marker88","type":"encounters","icon":"🧙","x":1449.21,"y":240.75,"name":"Random encounter","legend":"<div>You have encountered a character.</div><iframe src=\"https://deorum.vercel.app/encounter/2578\" width=\"375\" height=\"600\" sandbox=\"allow-scripts allow-same-origin allow-popups\"></iframe>"}},{"type":"Feature","geometry":{"type":"Point","coordinates":[20.5478,8.9791]},"properties":{"id":"marker89","type":"encounters","icon":"🧙","x":1276.12,"y":164.95,"name":"Random encounter","legend":"<div>You have encountered a character.</div><iframe src=\"https://deorum.vercel.app/encounter/1740\" width=\"375\" height=\"600\" sandbox=\"allow-scripts allow-same-origin allow-popups\"></iframe>"}},{"type":"Feature","geometry":{"type":"Point","coordinates":[-54.7651,-14.8013]},"properties":{"id":"marker90","type":"party","icon":"🚩","x":117.46,"y":530.83,"name":"The Party","legend":"Current location of the adventuring party.","size":46,"fill":"#ffffff","stroke":"#d4351c"}}]}